[
  {
    "name": "STARLINK-37362",
    "noradId": "68974",
    "line1": "1 68974U 26099Z   26181.79249771  .00033500  00000+0  99780-3 0  9990",
    "line2": "2 68974  53.1593  97.5186 0001496  98.3055 261.8117 15.34412477  9360"
  },
  {
    "name": "STARLINK-36667",
    "noradId": "68975",
    "line1": "1 68975U 26099AA  26181.79039093  .00022053  00000+0  66180-3 0  9994",
    "line2": "2 68975  53.1592  97.4941 0000768  89.7417 270.3674 15.34405115  9369"
  },
  {
    "name": "STARLINK-36735",
    "noradId": "68976",
    "line1": "1 68976U 26099AB  26181.07178799  .00014083  00000+0  42691-3 0  9998",
    "line2": "2 68976  53.1593 100.8301 0001057  92.9822 267.1301 15.34417482  9257"
  },
  {
    "name": "STARLINK-37371",
    "noradId": "68977",
    "line1": "1 68977U 26099AC  26181.78619432  .00034183  00000+0  10187-2 0  9998",
    "line2": "2 68977  53.1586  97.4567 0001250  78.7457 281.3686 15.34385912  9364"
  },
  {
    "name": "STARLINK-37293",
    "noradId": "68978",
    "line1": "1 68978U 26099AD  26181.78407928  .00031061  00000+0  92635-3 0  9995",
    "line2": "2 68978  53.1597  97.4530 0001392 109.0046 251.1108 15.34409095  9369"
  },
  {
    "name": "STARLINK-36248",
    "noradId": "68979",
    "line1": "1 68979U 26099AE  26181.78197623  .00031969  00000+0  95297-3 0  9998",
    "line2": "2 68979  53.1595  97.4465 0001278  97.3027 262.8121 15.34410167  9362"
  },
  {
    "name": "STARLINK-37592",
    "noradId": "69025",
    "line1": "1 69025U 26101A   26181.53018949  .00024135  00000+0  74675-3 0  9995",
    "line2": "2 69025  97.2846  36.1264 0000782  57.5640 302.5678 15.33478721  8613"
  },
  {
    "name": "STARLINK-37637",
    "noradId": "69026",
    "line1": "1 69026U 26101B   26181.49757210  .00014169  00000+0  44022-3 0  9991",
    "line2": "2 69026  97.2845  36.1698 0001568  91.8563 268.2859 15.33456391  8610"
  },
  {
    "name": "STARLINK-37548",
    "noradId": "69027",
    "line1": "1 69027U 26101C   26181.12235373  .00007060  00000+0  22082-3 0  9997",
    "line2": "2 69027  97.2842  35.7628 0002086  78.2338 281.9138 15.33441927  8555"
  },
  {
    "name": "STARLINK-37634",
    "noradId": "69028",
    "line1": "1 69028U 26101D   26181.48125692  .00010520  00000+0  32764-3 0  9992",
    "line2": "2 69028  97.2839  36.1931 0001295  65.7419 294.3959 15.33452463  8619"
  },
  {
    "name": "STARLINK-37635",
    "noradId": "69029",
    "line1": "1 69029U 26101E   26181.13053132  .00015885  00000+0  49326-3 0  9995",
    "line2": "2 69029  97.2845  35.7530 0001501  82.4342 277.7071 15.33449084  8556"
  },
  {
    "name": "STARLINK-37615",
    "noradId": "69030",
    "line1": "1 69030U 26101F   26181.50572982  .00011029  00000+0  34339-3 0  9991",
    "line2": "2 69030  97.2844  36.1614 0001999  72.0092 288.1368 15.33449026  8611"
  },
  {
    "name": "STARLINK-37240",
    "noradId": "69031",
    "line1": "1 69031U 26101G   26181.55467197  .00015166  00000+0  47104-3 0  9998",
    "line2": "2 69031  97.2844  36.2467 0001766  89.9354 270.2091 15.33451673  8626"
  },
  {
    "name": "STARLINK-37596",
    "noradId": "69032",
    "line1": "1 69032U 26101H   26181.14682354 -.00000913  00000+0 -25973-4 0  9995",
    "line2": "2 69032  97.2837  35.8799 0001342 122.7057 237.4316 15.33433915  8565"
  },
  {
    "name": "STARLINK-37591",
    "noradId": "69033",
    "line1": "1 69033U 26101J   26181.11963238  .00008499  00000+0  26522-3 0  9991",
    "line2": "2 69033  97.2857  35.7660 0001583 120.4488 239.6911 15.33450412  8559"
  },
  {
    "name": "STARLINK-37611",
    "noradId": "69034",
    "line1": "1 69034U 26101K   26181.12779218  .00006891  00000+0  21558-3 0  9994",
    "line2": "2 69034  97.2851  35.7548 0002411  75.3610 284.7900 15.33441106  8554"
  },
  {
    "name": "STARLINK-37512",
    "noradId": "69035",
    "line1": "1 69035U 26101L   26181.47853665  .00014208  00000+0  44142-3 0  9997",
    "line2": "2 69035  97.2842  36.1933 0002128 109.0896 251.0578 15.33454918  8614"
  },
  {
    "name": "STARLINK-37609",
    "noradId": "69036",
    "line1": "1 69036U 26101M   26181.56010769  .00013727  00000+0  42659-3 0  9994",
    "line2": "2 69036  97.2842  36.2386 0002049  85.8689 274.2788 15.33454631  8624"
  },
  {
    "name": "STARLINK-37608",
    "noradId": "69037",
    "line1": "1 69037U 26101N   26181.48669677  .00013329  00000+0  41436-3 0  9994",
    "line2": "2 69037  97.2851  36.1869 0001799  78.9866 281.1580 15.33451045  8613"
  },
  {
    "name": "STARLINK-37466",
    "noradId": "69038",
    "line1": "1 69038U 26101P   26181.53291569  .00019017  00000+0  58958-3 0  9999",
    "line2": "2 69038  97.2840  36.2736 0001393  93.4593 266.6809 15.33461936  8628"
  },
  {
    "name": "STARLINK-37612",
    "noradId": "69039",
    "line1": "1 69039U 26101Q   26181.13325299  .00023865  00000+0  73930-3 0  9997",
    "line2": "2 69039  97.2842  35.7505 0001759  86.4193 273.7251 15.33440284  8558"
  },
  {
    "name": "STARLINK-37616",
    "noradId": "69040",
    "line1": "1 69040U 26101R   26181.52748134  .00015055  00000+0  46763-3 0  9995",
    "line2": "2 69040  97.2846  36.1331 0002045  94.4808 265.6669 15.33451408  8617"
  },
  {
    "name": "STARLINK-37614",
    "noradId": "69041",
    "line1": "1 69041U 26101S   26181.12507029  .00010424  00000+0  32471-3 0  9994",
    "line2": "2 69041  97.2853  35.7572 0001351 100.1472 259.9924 15.33449813  8559"
  },
  {
    "name": "STARLINK-37644",
    "noradId": "69042",
    "line1": "1 69042U 26101T   26181.50299134  .00007240  00000+0  22619-3 0  9997",
    "line2": "2 69042  97.2838  36.1651 0000986  78.1903 281.9451 15.33470447  8616"
  },
  {
    "name": "STARLINK-37571",
    "noradId": "69043",
    "line1": "1 69043U 26101U   26181.11691477  .00008085  00000+0  25250-3 0  9993",
    "line2": "2 69043  97.2844  35.7712 0002042 106.9707 253.1760 15.33443442  8556"
  },
  {
    "name": "STARLINK-37664",
    "noradId": "69044",
    "line1": "1 69044U 26101V   26181.56554829  .00019172  00000+0  59463-3 0  9994",
    "line2": "2 69044  97.2839  36.2312 0001707  90.2293 269.9145 15.33447137  8620"
  },
  {
    "name": "STARLINK-37667",
    "noradId": "69045",
    "line1": "1 69045U 26101W   26181.55738942  .00011065  00000+0  34445-3 0  9990",
    "line2": "2 69045  97.2843  36.2450 0001712  90.5823 269.5616 15.33454173  8624"
  },
  {
    "name": "STARLINK-37666",
    "noradId": "69046",
    "line1": "1 69046U 26101X   26181.47582079  .00029317  00000+0  90664-3 0  9994",
    "line2": "2 69046  97.2844  36.2029 0002125 106.7749 253.3727 15.33452930  8616"
  },
  {
    "name": "STARLINK-37576",
    "noradId": "69047",
    "line1": "1 69047U 26101Y   26181.14410487  .00013767  00000+0  42791-3 0  9992",
    "line2": "2 69047  97.2844  35.8890 0001658  99.7480 260.3950 15.33450689  8560"
  }
]