OBJECT_NAME,OBJECT_ID,EPOCH,MEAN_MOTION,ECCENTRICITY,INCLINATION,RA_OF_ASC_NODE,ARG_OF_PERICENTER,MEAN_ANOMALY,EPHEMERIS_TYPE,CLASSIFICATION_TYPE,NORAD_CAT_ID,ELEMENT_SET_NO,REV_AT_EPOCH,BSTAR,MEAN_MOTION_DOT,MEAN_MOTION_DDOT
STARLINK-37362,2026-099Z,2026-06-30T19:01:11.802144,15.34412477,.00014956,53.1593,97.5186,98.3055,261.8117,0,U,68974,999,936,.99779584E-3,.335E-3,0
STARLINK-36667,2026-099AA,2026-06-30T18:58:09.776352,15.34405115,.00007681,53.1592,97.4941,89.7417,270.3674,0,U,68975,999,936,.66180437E-3,.22053E-3,0
STARLINK-36735,2026-099AB,2026-06-30T01:43:22.482336,15.34417482,.00010571,53.1593,100.8301,92.9822,267.1301,0,U,68976,999,925,.42690998E-3,.14083E-3,0
STARLINK-37371,2026-099AC,2026-06-30T18:52:07.189248,15.34385912,.00012495,53.1586,97.4567,78.7457,281.3686,0,U,68977,999,936,.10186692E-2,.34183E-3,0
STARLINK-37293,2026-099AD,2026-06-30T18:49:04.450656,15.34409095,.00013922,53.1597,97.4530,109.0046,251.1108,0,U,68978,999,936,.92634875E-3,.31061E-3,0
STARLINK-36248,2026-099AE,2026-06-30T18:46:02.746272,15.34410167,.00012779,53.1595,97.4465,97.3027,262.8121,0,U,68979,999,936,.95296642E-3,.31969E-3,0
STARLINK-37592,2026-101A,2026-06-30T12:43:28.371936,15.33478721,.00007822,97.2846,36.1264,57.5640,302.5678,0,U,69025,999,861,.74674585E-3,.24135E-3,0
STARLINK-37637,2026-101B,2026-06-30T11:56:30.229440,15.33456391,.00015686,97.2845,36.1698,91.8563,268.2859,0,U,69026,999,861,.44021624E-3,.14169E-3,0
STARLINK-37548,2026-101C,2026-06-30T02:56:11.362272,15.33441927,.00020865,97.2842,35.7628,78.2338,281.9138,0,U,69027,999,855,.22081928E-3,.706E-4,0
STARLINK-37634,2026-101D,2026-06-30T11:33:00.597888,15.33452463,.00012955,97.2839,36.1931,65.7419,294.3959,0,U,69028,999,861,.32764087E-3,.1052E-3,0
STARLINK-37635,2026-101E,2026-06-30T03:07:57.906048,15.33449084,.00015014,97.2845,35.7530,82.4342,277.7071,0,U,69029,999,855,.49326395E-3,.15885E-3,0
STARLINK-37615,2026-101F,2026-06-30T12:08:15.056448,15.33449026,.00019991,97.2844,36.1614,72.0092,288.1368,0,U,69030,999,861,.34339161E-3,.11029E-3,0
STARLINK-37240,2026-101G,2026-06-30T13:18:43.658208,15.33451673,.00017662,97.2844,36.2467,89.9354,270.2091,0,U,69031,999,862,.47103577E-3,.15166E-3,0
STARLINK-37596,2026-101H,2026-06-30T03:31:25.553856,15.33433915,.00013423,97.2837,35.8799,122.7057,237.4316,0,U,69032,999,856,-.25973194E-4,-.913E-5,0
STARLINK-37591,2026-101J,2026-06-30T02:52:16.237632,15.33450412,.0001583,97.2857,35.7660,120.4488,239.6911,0,U,69033,999,855,.26522428E-3,.8499E-4,0
STARLINK-37611,2026-101K,2026-06-30T03:04:01.244352,15.33441106,.00024119,97.2851,35.7548,75.3610,284.7900,0,U,69034,999,855,.21558124E-3,.6891E-4,0
STARLINK-37512,2026-101L,2026-06-30T11:29:05.566560,15.33454918,.00021289,97.2842,36.1933,109.0896,251.0578,0,U,69035,999,861,.44142282E-3,.14208E-3,0
STARLINK-37609,2026-101M,2026-06-30T13:26:33.304416,15.33454631,.00020489,97.2842,36.2386,85.8689,274.2788,0,U,69036,999,862,.4265926E-3,.13727E-3,0
STARLINK-37608,2026-101N,2026-06-30T11:40:50.600928,15.33451045,.00017999,97.2851,36.1869,78.9866,281.1580,0,U,69037,999,861,.41436166E-3,.13329E-3,0
STARLINK-37466,2026-101P,2026-06-30T12:47:23.915616,15.33461936,.00013938,97.2840,36.2736,93.4593,266.6809,0,U,69038,999,862,.58958008E-3,.19017E-3,0
STARLINK-37612,2026-101Q,2026-06-30T03:11:53.058336,15.33440284,.00017591,97.2842,35.7505,86.4193,273.7251,0,U,69039,999,855,.73930081E-3,.23865E-3,0
STARLINK-37616,2026-101R,2026-06-30T12:39:34.387776,15.33451408,.0002045,97.2846,36.1331,94.4808,265.6669,0,U,69040,999,861,.46763023E-3,.15055E-3,0
STARLINK-37614,2026-101S,2026-06-30T03:00:06.073056,15.33449813,.00013516,97.2853,35.7572,100.1472,259.9924,0,U,69041,999,855,.32470732E-3,.10424E-3,0
STARLINK-37644,2026-101T,2026-06-30T12:04:18.451776,15.33470447,.00009861,97.2838,36.1651,78.1903,281.9451,0,U,69042,999,861,.22619301E-3,.724E-4,0
STARLINK-37571,2026-101U,2026-06-30T02:48:21.436128,15.33443442,.00020423,97.2844,35.7712,106.9707,253.1760,0,U,69043,999,855,.2525014E-3,.8085E-4,0
STARLINK-37664,2026-101V,2026-06-30T13:34:23.372256,15.33447137,.00017073,97.2839,36.2312,90.2293,269.9145,0,U,69044,999,862,.59462691E-3,.19172E-3,0
STARLINK-37667,2026-101W,2026-06-30T13:22:38.445888,15.33454173,.00017121,97.2843,36.2450,90.5823,269.5616,0,U,69045,999,862,.34444945E-3,.11065E-3,0
STARLINK-37666,2026-101X,2026-06-30T11:25:10.916256,15.33452930,.00021251,97.2844,36.2029,106.7749,253.3727,0,U,69046,999,861,.90664455E-3,.29317E-3,0
STARLINK-37576,2026-101Y,2026-06-30T03:27:30.660768,15.33450689,.00016586,97.2844,35.8890,99.7480,260.3950,0,U,69047,999,856,.42790771E-3,.13767E-3,0
